$$SOE
2459580.500000000, A.D. 2022-Jan-01 00:00:00.0000, 3.385122990289304E+08, -4.326245978772761E+08, 7.747077047086775E+06,
2459587.500000000, A.D. 2022-Jan-08 00:00:00.0000, 3.447547386007500E+08, -4.251425395216313E+08, 7.112772685141385E+06,
2459594.500000000, A.D. 2022-Jan-15 00:00:00.0000, 3.508953535821048E+08, -4.175345362298489E+08, 6.476348013509274E+06,
2459601.500000000, A.D. 2022-Jan-22 00:00:00.0000, 3.569312078590351E+08, -4.098014973622337E+08, 5.837970242980957E+06,
2459608.500000000, A.D. 2022-Jan-29 00:00:00.0000, 3.628593454387838E+08, -4.019444016837252E+08, 5.197811167915672E+06,
2459615.500000000, A.D. 2022-Feb-05 00:00:00.0000, 3.686767897978446E+08, -3.939643000956917E+08, 4.556047354035199E+06,
2459622.500000000, A.D. 2022-Feb-12 00:00:00.0000, 3.743805455190825E+08, -3.858623194356832E+08, 3.912860036320120E+06,
2459629.500000000, A.D. 2022-Feb-19 00:00:00.0000, 3.799676008972594E+08, -3.776396649709340E+08, 3.268435041613758E+06,
2459636.500000000, A.D. 2022-Feb-26 00:00:00.0000, 3.854349302054992E+08, -3.692976223033856E+08, 2.622962796561882E+06,
2459643.500000000, A.D. 2022-Mar-05 00:00:00.0000, 3.907794957854879E+08, -3.608375592973697E+08, 1.976638355192438E+06,
2459650.500000000, A.D. 2022-Mar-12 00:00:00.0000, 3.959982501865321E+08, -3.522609280893703E+08, 1.329661419686317E+06,
2459657.500000000, A.D. 2022-Mar-19 00:00:00.0000, 4.010881384275992E+08, -3.435692671450685E+08, 6.822363493532687E+05,
2459664.500000000, A.D. 2022-Mar-26 00:00:00.0000, 4.060461004074363E+08, -3.347642033623780E+08, 3.457215449850261E+04,
2459671.500000000, A.D. 2022-Apr-02 00:00:00.0000, 4.108690735327962E+08, -3.258474542684471E+08, -6.131175363855809E+05,
2459678.500000000, A.D. 2022-Apr-09 00:00:00.0000, 4.155539958388028E+08, -3.168208302971781E+08, -1.260614561423302E+06,
2459685.500000000, A.D. 2022-Apr-16 00:00:00.0000, 4.200978099608275E+08, -3.076862364842297E+08, -1.907696342121378E+06,
2459692.500000000, A.D. 2022-Apr-23 00:00:00.0000, 4.244974666913836E+08, -2.984456724868001E+08, -2.554135827634186E+06,
2459699.500000000, A.D. 2022-Apr-30 00:00:00.0000, 4.287499262530211E+08, -2.891012331651820E+08, -3.199701279019907E+06,
2459706.500000000, A.D. 2022-May-07 00:00:00.0000, 4.328521603494440E+08, -2.796551116900380E+08, -3.844156336343199E+06,
2459713.500000000, A.D. 2022-May-14 00:00:00.0000, 4.368011563836267E+08, -2.701096021267846E+08, -4.487260248363122E+06,
2459720.500000000, A.D. 2022-May-21 00:00:00.0000, 4.405939218110123E+08, -2.604671007282405E+08, -5.128768016977578E+06,
2459727.500000000, A.D. 2022-May-28 00:00:00.0000, 4.442274881469349E+08, -2.507301068839355E+08, -5.768430491327882E+06,
2459734.500000000, A.D. 2022-Jun-04 00:00:00.0000, 4.476989149021947E+08, -2.409012240276751E+08, -6.405994463021383E+06,
2459741.500000000, A.D. 2022-Jun-11 00:00:00.0000, 4.510052935877378E+08, -2.309831604891316E+08, -7.041202776013449E+06,
2459748.500000000, A.D. 2022-Jun-18 00:00:00.0000, 4.541437518232957E+08, -2.209787302637805E+08, -7.673794453996330E+06,
2459755.500000000, A.D. 2022-Jun-25 00:00:00.0000, 4.571114575753894E+08, -2.108908537222098E+08, -8.303504851021767E+06,
2459762.500000000, A.D. 2022-Jul-02 00:00:00.0000, 4.599056236538382E+08, -2.007225583128304E+08, -8.930065843292683E+06,
2459769.500000000, A.D. 2022-Jul-09 00:00:00.0000, 4.625235128508514E+08, -1.904769790693073E+08, -9.553206083672911E+06,
2459776.500000000, A.D. 2022-Jul-16 00:00:00.0000, 4.649624436607859E+08, -1.801573578281484E+08, -1.017265122545042E+07,
2459783.500000000, A.D. 2022-Jul-23 00:00:00.0000, 4.672197943751053E+08, -1.697670410680949E+08, -1.078812390732676E+07,
2459790.500000000, A.D. 2022-Jul-30 00:00:00.0000, 4.692930056271653E+08, -1.593094797153621E+08, -1.139934378146331E+07,
2459797.500000000, A.D. 2022-Aug-06 00:00:00.0000, 4.711795849735039E+08, -1.487882302555945E+08, -1.200602786175931E+07,
2459804.500000000, A.D. 2022-Aug-13 00:00:00.0000, 4.728771126762050E+08, -1.382069543867763E+08, -1.260789089162908E+07,
2459811.500000000, A.D. 2022-Aug-20 00:00:00.0000, 4.743832471044921E+08, -1.275694177062116E+08, -1.320464562823102E+07,
2459818.500000000, A.D. 2022-Aug-27 00:00:00.0000, 4.756957298099830E+08, -1.168794881486875E+08, -1.379600310849040E+07,
2459825.500000000, A.D. 2022-Sep-03 00:00:00.0000, 4.768123905085283E+08, -1.061411342775211E+08, -1.438167292837262E+07,
2459832.500000000, A.D. 2022-Sep-10 00:00:00.0000, 4.777311520426291E+08, -9.535842339638123E+07, -1.496136354135126E+07,
2459839.500000000, A.D. 2022-Sep-17 00:00:00.0000, 4.784500353368151E+08, -8.453551947620526E+07, -1.553478257852195E+07,
2459846.500000000, A.D. 2022-Sep-24 00:00:00.0000, 4.789671643885258E+08, -7.367668094166070E+07, -1.610163719966472E+07,
2459853.500000000, A.D. 2022-Oct-01 00:00:00.0000, 4.792807715154737E+08, -6.278625833410767E+07, -1.666163449871349E+07,
2459860.500000000, A.D. 2022-Oct-08 00:00:00.0000, 4.793892032466459E+08, -5.186869132427169E+07, -1.721448195791303E+07,
2459867.500000000, A.D. 2022-Oct-15 00:00:00.0000, 4.792909259055853E+08, -4.092850387127276E+07, -1.775988776663844E+07,
2459874.500000000, A.D. 2022-Oct-22 00:00:00.0000, 4.789845286864994E+08, -2.997029921042512E+07, -1.829756094179748E+07,
2459881.500000000, A.D. 2022-Oct-29 00:00:00.0000, 4.784687267012747E+08, -1.899875726488013E+07, -1.882721169038237E+07,
2459888.500000000, A.D. 2022-Nov-05 00:00:00.0000, 4.777423660745627E+08, -8.018631742145860E+06, -1.934855198206437E+07,
2459895.500000000, A.D. 2022-Nov-12 00:00:00.0000, 4.768044291006473E+08, 2.965254348551953E+06, -1.986129604713643E+07,
2459902.500000000, A.D. 2022-Nov-19 00:00:00.0000, 4.756540387218878E+08, 1.394801379860598E+07, -2.036516081073267E+07,
2459909.500000000, A.D. 2022-Nov-26 00:00:00.0000, 4.742904625700229E+08, 2.492470051737671E+07, -2.085986631865185E+07,
2459916.500000000, A.D. 2022-Dec-03 00:00:00.0000, 4.727131167154909E+08, 3.589031504386894E+07, -2.134513616960952E+07,
2459923.500000000, A.D. 2022-Dec-10 00:00:00.0000, 4.709215691498099E+08, 4.683981026047386E+07, -2.182069795507750E+07,
2459930.500000000, A.D. 2022-Dec-17 00:00:00.0000, 4.689155430059733E+08, 5.776809727097108E+07, -2.228628370941533E+07,
2459937.500000000, A.D. 2022-Dec-24 00:00:00.0000, 4.666949196073997E+08, 6.867005136207832E+07, -2.274163038403201E+07,
2459944.500000000, A.D. 2022-Dec-31 00:00:00.0000, 4.642597416847423E+08, 7.954051813888769E+07, -2.318648036787909E+07,
2459951.500000000, A.D. 2023-Jan-07 00:00:00.0000, 4.616102168647704E+08, 9.037432077779293E+07, -2.362058198503702E+07,
2459958.500000000, A.D. 2023-Jan-14 00:00:00.0000, 4.587467194478132E+08, 1.011662688746752E+08, -2.404368974634054E+07,
2459965.500000000, A.D. 2023-Jan-21 00:00:00.0000, 4.556697898168383E+08, 1.119111656942284E+08, -2.445556455333222E+07,
2459972.500000000, A.D. 2023-Jan-28 00:00:00.0000, 4.523801351336179E+08, 1.226038135994539E+08, -2.485597420529069E+07,
2459979.500000000, A.D. 2023-Feb-04 00:00:00.0000, 4.488786310994818E+08, 1.332390206627763E+08, -2.524469394087683E+07,
2459986.500000000, A.D. 2023-Feb-11 00:00:00.0000, 4.451663229734070E+08, 1.438116082388290E+08, -2.562150686353426E+07,
2459993.500000000, A.D. 2023-Feb-18 00:00:00.0000, 4.412444257743677E+08, 1.543164186489256E+08, -2.598620431012841E+07,
2460000.500000000, A.D. 2023-Feb-25 00:00:00.0000, 4.371143239233094E+08, 1.647483227886177E+08, -2.633858619821410E+07,
2460007.500000000, A.D. 2023-Mar-04 00:00:00.0000, 4.327775704226579E+08, 1.751022276503555E+08, -2.667846135795444E+07,
2460014.500000000, A.D. 2023-Mar-11 00:00:00.0000, 4.282358856010363E+08, 1.853730837344675E+08, -2.700564784962101E+07,
2460021.500000000, A.D. 2023-Mar-18 00:00:00.0000, 4.234911554720698E+08, 1.955558922709067E+08, -2.731997327354850E+07,
2460028.500000000, A.D. 2023-Mar-25 00:00:00.0000, 4.185454299145688E+08, 2.056457121757847E+08, -2.762127509371451E+07,
2460035.500000000, A.D. 2023-Apr-01 00:00:00.0000, 4.134009211039398E+08, 2.156376671066143E+08, -2.790940098053217E+07,
2460042.500000000, A.D. 2023-Apr-08 00:00:00.0000, 4.080600015846685E+08, 2.255269538118699E+08, -2.818420901502723E+07,
2460049.500000000, A.D. 2023-Apr-15 00:00:00.0000, 4.025251996540459E+08, 2.353088506424273E+08, -2.844556762910153E+07,
2460056.500000000, A.D. 2023-Apr-22 00:00:00.0000, 3.967991938792180E+08, 2.449787231482165E+08, -2.869335569649291E+07,
2460063.500000000, A.D. 2023-Apr-29 00:00:00.0000, 3.908848094965001E+08, 2.545320289866820E+08, -2.892746284077005E+07,
2460070.500000000, A.D. 2023-May-06 00:00:00.0000, 3.847850149462971E+08, 2.639643238995491E+08, -2.914778965281874E+07,
2460077.500000000, A.D. 2023-May-13 00:00:00.0000, 3.785029175830921E+08, 2.732712678423240E+08, -2.935424780092479E+07,
2460084.500000000, A.D. 2023-May-20 00:00:00.0000, 3.720417588133878E+08, 2.824486307550231E+08, -2.954676009504662E+07,
2460091.500000000, A.D. 2023-May-27 00:00:00.0000, 3.654049088754987E+08, 2.914922979258353E+08, -2.972526052563450E+07,
2460098.500000000, A.D. 2023-Jun-03 00:00:00.0000, 3.585958613405808E+08, 3.003982749566143E+08, -2.988969428053322E+07,
2460105.500000000, A.D. 2023-Jun-10 00:00:00.0000, 3.516182273817165E+08, 3.091626923013152E+08, -3.004001774380158E+07,
2460112.500000000, A.D. 2023-Jun-17 00:00:00.0000, 3.444757299242955E+08, 3.177818093043028E+08, -3.017619849019016E+07,
2460119.500000000, A.D. 2023-Jun-24 00:00:00.0000, 3.371721980231267E+08, 3.262520177833515E+08, -3.029821530091752E+07,
2460126.500000000, A.D. 2023-Jul-01 00:00:00.0000, 3.297115617457734E+08, 3.345698459759974E+08, -3.040605815727286E+07,
2460133.500000000, A.D. 2023-Jul-08 00:00:00.0000, 3.220978459132506E+08, 3.427319636627234E+08, -3.049972799211282E+07,
2460140.500000000, A.D. 2023-Jul-15 00:00:00.0000, 3.143351614459545E+08, 3.507351856330420E+08, -3.057923631404661E+07,
2460147.500000000, A.D. 2023-Jul-22 00:00:00.0000, 3.064276978643753E+08, 3.585764724595931E+08, -3.064460511312863E+07,
$$EOE